STARLINK-2160           
1 47746U 21017AA  26068.65316895 -.00002424  00000+0 -69777-4 0  9997
2 47746  53.1611 204.4096 0001264  85.1179 274.9966 15.30187574277826
JINJUSAT-1B             
1 63210U 25052A   26068.66363707  .00019955  00000+0  68430-3 0  9998
2 63210  97.4113 325.4613 0005550  82.1930 277.9941 15.30194857 54866
