[{"OBJECT_NAME":"STARLINK-2160","OBJECT_ID":"2021-017AA","EPOCH":"2026-03-09T15:40:33.797280","MEAN_MOTION":15.30187574,"ECCENTRICITY":0.00012645,"INCLINATION":53.1611,"RA_OF_ASC_NODE":204.4096,"ARG_OF_PERICENTER":85.1179,"MEAN_ANOMALY":274.9966,"EPHEMERIS_TYPE":0,"CLASSIFICATION_TYPE":"U","NORAD_CAT_ID":47746,"ELEMENT_SET_NO":999,"REV_AT_EPOCH":27782,"BSTAR":-6.9776996e-5,"MEAN_MOTION_DOT":-2.424e-5,"MEAN_MOTION_DDOT":0},{"OBJECT_NAME":"JINJUSAT-1B","OBJECT_ID":"2025-052A","EPOCH":"2026-03-09T15:55:38.242848","MEAN_MOTION":15.30194857,"ECCENTRICITY":0.00055504,"INCLINATION":97.4113,"RA_OF_ASC_NODE":325.4613,"ARG_OF_PERICENTER":82.193,"MEAN_ANOMALY":277.9941,"EPHEMERIS_TYPE":0,"CLASSIFICATION_TYPE":"U","NORAD_CAT_ID":63210,"ELEMENT_SET_NO":999,"REV_AT_EPOCH":5486,"BSTAR":0.00068430401,"MEAN_MOTION_DOT":0.00019955,"MEAN_MOTION_DDOT":0}]
